IRIDIUM 171             
1 43929U 19002H   24186.82475739 -.00000144  00000+0 -58365-4 0  9996
2 43929  86.3974 291.4957 0002208  90.2726 269.8723 14.34217930286851
IRIDIUM 170             
1 43930U 19002J   24186.31983170  .00001607  00000+0  25090-3 0  9996
2 43930  86.6095 291.5236 0002318  93.9422 266.2060 14.72268096294378
IRIDIUM 167             
1 43931U 19002K   24186.81840821  .00000392  00000+0  13290-3 0  9996
2 43931  86.3967 291.2869 0002291  94.6287 265.5170 14.34219849286858
IRIDIUM 181             
1 56726U 23068S   24186.92145215  .00000563  00000+0  16054-3 0  9997
2 56726  86.8646 345.8382 0002476  92.4903 267.6582 14.43581505 59696
IRIDIUM 177             
1 56727U 23068T   24186.86925895  .00001819  00000+0  23600-3 0  9991
2 56727  86.1979 306.9640 0002457  84.5434 275.6067 14.80203964 60997
IRIDIUM 174             
1 56728U 23068U   24186.86382324  .00002207  00000+0  28708-3 0  9992
2 56728  86.1987 307.0713 0002354  93.6649 266.4842 14.80206324 60997
IRIDIUM 178             
1 56729U 23068V   24186.85838184  .00001992  00000+0  25883-3 0  9993
2 56729  86.5791 325.3765 0002210  99.8562 260.2909 14.80205186 60999
IRIDIUM 179             
1 56730U 23068W   24186.92053490  .00000568  00000+0  71338-4 0  9997
2 56730  86.6802 329.7081 0002409  98.8465 261.3029 14.80199847 61009
